{"type": "FeatureCollection", "features": [ {"type": "Feature", "properties": {"norad_id": 66825, "name": "STARLINK-35476", "group": "last-30-days", "lat": -19.44708120729855, "lon": -174.1318396955017, "alt_km": 345.5239708406425, "timestamp": "2025-12-14T16:47:39.438414+00:00", "meta": {"OBJECT_NAME": "STARLINK-35476", "OBJECT_ID": "2025-280E", "EPOCH": "2025-12-13T16:30:56.327616", "MEAN_MOTION": 15.7706754, "ECCENTRICITY": 0.00046688, "INCLINATION": 69.9934, "RA_OF_ASC_NODE": 196.1307, "ARG_OF_PERICENTER": 280.3772, "MEAN_ANOMALY": 79.6901, "EPHEMERIS_TYPE": 0, "CLASSIFICATION_TYPE": "U", "NORAD_CAT_ID": 66825, "ELEMENT_SET_NO": 999, "REV_AT_EPOCH": 307, "BSTAR": -0.0039943465, "MEAN_MOTION_DOT": -0.00608447, "MEAN_MOTION_DDOT": 0}, "tle": {"line1": "1 66825U 25280E   25347.68815194 -.00608447  00000+0 -39943-2 0  9997", "line2": "2 66825  69.9934 196.1307 0004668 280.3772  79.6901 15.77067540  3073"}}, "geometry": {"type": "Point", "coordinates": [-174.1318396955017, -19.44708120729855]}}, {"type": "Feature", "properties": {"norad_id": 66826, "name": "STARLINK-35898", "group": "last-30-days", "lat": -16.43416299002333, "lon": -172.91428143618353, "alt_km": 346.47657665368206, "timestamp": "2025-12-14T16:47:39.438424+00:00", "meta": {"OBJECT_NAME": "STARLINK-35898", "OBJECT_ID": "2025-280F", "EPOCH": "2025-12-13T18:01:47.295840", "MEAN_MOTION": 15.77067962, "ECCENTRICITY": 0.00050994, "INCLINATION": 69.9929, "RA_OF_ASC_NODE": 195.949, "ARG_OF_PERICENTER": 227.182, "MEAN_ANOMALY": 132.8951, "EPHEMERIS_TYPE": 0, "CLASSIFICATION_TYPE": "U", "NORAD_CAT_ID": 66826, "ELEMENT_SET_NO": 999, "REV_AT_EPOCH": 308, "BSTAR": -0.0020306743, "MEAN_MOTION_DOT": -0.00319857, "MEAN_MOTION_DDOT": 0}, "tle": {"line1": "1 66826U 25280F   25347.75124185 -.00319857  00000+0 -20307-2 0  9997", "line2": "2 66826  69.9929 195.9490 0005099 227.1820 132.8951 15.77067962  3086"}}, "geometry": {"type": "Point", "coordinates": [-172.91428143618353, -16.43416299002333]}}, {"type": "Feature", "properties": {"norad_id": 66827, "name": "STARLINK-35959", "group": "last-30-days", "lat": -15.772803005901638, "lon": -172.65540799065198, "alt_km": 344.231264029655, "timestamp": "2025-12-14T16:47:39.438434+00:00", "meta": {"OBJECT_NAME": "STARLINK-35959", "OBJECT_ID": "2025-280G", "EPOCH": "2025-12-13T16:29:57.289632", "MEAN_MOTION": 15.77058622, "ECCENTRICITY": 0.00061494, "INCLINATION": 69.9897, "RA_OF_ASC_NODE": 196.1265, "ARG_OF_PERICENTER": 289.4107, "MEAN_ANOMALY": 70.6427, "EPHEMERIS_TYPE": 0, "CLASSIFICATION_TYPE": "U", "NORAD_CAT_ID": 66827, "ELEMENT_SET_NO": 999, "REV_AT_EPOCH": 307, "BSTAR": -0.0038259843, "MEAN_MOTION_DOT": -0.00584667, "MEAN_MOTION_DDOT": 0}, "tle": {"line1": "1 66827U 25280G   25347.68746863 -.00584667  00000+0 -38260-2 0  9993", "line2": "2 66827  69.9897 196.1265 0006149 289.4107  70.6427 15.77058622  3079"}}, "geometry": {"type": "Point", "coordinates": [-172.65540799065198, -15.772803005901638]}}, {"type": "Feature", "properties": {"norad_id": 66828, "name": "STARLINK-35982", "group": "last-30-days", "lat": -11.31503391935266, "lon": -170.9319870682699, "alt_km": 345.2208030989532, "timestamp": "2025-12-14T16:47:39.438446+00:00", "meta": {"OBJECT_NAME": "STARLINK-35982", "OBJECT_ID": "2025-280H", "EPOCH": "2025-12-13T14:57:32.980896", "MEAN_MOTION": 15.77283377, "ECCENTRICITY": 0.00048196, "INCLINATION": 69.993, "RA_OF_ASC_NODE": 196.305, "ARG_OF_PERICENTER": 269.5547, "MEAN_ANOMALY": 90.5101, "EPHEMERIS_TYPE": 0, "CLASSIFICATION_TYPE": "U", "NORAD_CAT_ID": 66828, "ELEMENT_SET_NO": 999, "REV_AT_EPOCH": 306, "BSTAR": -0.0038335704, "MEAN_MOTION_DOT": -0.00590837, "MEAN_MOTION_DDOT": 0}, "tle": {"line1": "1 66828U 25280H   25347.62329839 -.00590837  00000+0 -38336-2 0  9998", "line2": "2 66828  69.9930 196.3050 0004819 269.5547  90.5101 15.77283377  3067"}}, "geometry": {"type": "Point", "coordinates": [-170.9319870682699, -11.31503391935266]}}, {"type": "Feature", "properties": {"norad_id": 66829, "name": "STARLINK-36084", "group": "last-30-days", "lat": -14.670719626141732, "lon": -172.2207688329565, "alt_km": 345.8658376785197, "timestamp": "2025-12-14T16:47:39.438456+00:00", "meta": {"OBJECT_NAME": "STARLINK-36084", "OBJECT_ID": "2025-280J", "EPOCH": "2025-12-13T18:00:48.254400", "MEAN_MOTION": 15.76802697, "ECCENTRICITY": 0.00054898, "INCLINATION": 69.9927, "RA_OF_ASC_NODE": 195.9462, "ARG_OF_PERICENTER": 277.77, "MEAN_ANOMALY": 82.2876, "EPHEMERIS_TYPE": 0, "CLASSIFICATION_TYPE": "U", "NORAD_CAT_ID": 66829, "ELEMENT_SET_NO": 999, "REV_AT_EPOCH": 308, "BSTAR": -0.0041544453, "MEAN_MOTION_DOT": -0.00624565, "MEAN_MOTION_DDOT": 0}, "tle": {"line1": "1 66829U 25280J   25347.75055850 -.00624565  00000+0 -41544-2 0  9993", "line2": "2 66829  69.9927 195.9462 0005489 277.7700  82.2876 15.76802697  3082"}}, "geometry": {"type": "Point", "coordinates": [-172.2207688329565, -14.670719626141732]}}, {"type": "Feature", "properties": {"norad_id": 66830, "name": "STARLINK-35881", "group": "last-30-days", "lat": -45.844362694587346, "lon": 171.2493784837585, "alt_km": 399.5766788057517, "timestamp": "2025-12-14T16:47:39.438468+00:00", "meta": {"OBJECT_NAME": "STARLINK-35881", "OBJECT_ID": "2025-280K", "EPOCH": "2025-12-13T22:35:58.233408", "MEAN_MOTION": 15.68084391, "ECCENTRICITY": 0.00287147, "INCLINATION": 69.9917, "RA_OF_ASC_NODE": 195.4072, "ARG_OF_PERICENTER": 76.4013, "MEAN_ANOMALY": 284.0377, "EPHEMERIS_TYPE": 0, "CLASSIFICATION_TYPE": "U", "NORAD_CAT_ID": 66830, "ELEMENT_SET_NO": 999, "REV_AT_EPOCH": 311, "BSTAR": -0.037632169, "MEAN_MOTION_DOT": -0.03666125, "MEAN_MOTION_DDOT": 0}, "tle": {"line1": "1 66830U 25280K   25347.94164622 -.03666125  00000+0 -37632-1 0  9997", "line2": "2 66830  69.9917 195.4072 0028714  76.4013 284.0377 15.68084391  3118"}}, "geometry": {"type": "Point", "coordinates": [171.2493784837585, -45.844362694587346]}}, {"type": "Feature", "properties": {"norad_id": 66831, "name": "STARLINK-35788", "group": "last-30-days", "lat": -52.04437064922201, "lon": 165.46688719798516, "alt_km": 406.33613579413486, "timestamp": "2025-12-14T16:47:39.438478+00:00", "meta": {"OBJECT_NAME": "STARLINK-35788", "OBJECT_ID": "2025-280L", "EPOCH": "2025-12-13T14:56:46.344768", "MEAN_MOTION": 15.72459416, "ECCENTRICITY": 0.00168784, "INCLINATION": 69.9932, "RA_OF_ASC_NODE": 196.3022, "ARG_OF_PERICENTER": 78.8344, "MEAN_ANOMALY": 281.475, "EPHEMERIS_TYPE": 0, "CLASSIFICATION_TYPE": "U", "NORAD_CAT_ID": 66831, "ELEMENT_SET_NO": 999, "REV_AT_EPOCH": 306, "BSTAR": -0.076984788, "MEAN_MOTION_DOT": -0.08455505, "MEAN_MOTION_DDOT": 0}, "tle": {"line1": "1 66831U 25280L   25347.62275862 -.08455505  00000+0 -76985-1 0  9999", "line2": "2 66831  69.9932 196.3022 0016878  78.8344 281.4750 15.72459416  3061"}}, "geometry": {"type": "Point", "coordinates": [165.46688719798516, -52.04437064922201]}}, {"type": "Feature", "properties": {"norad_id": 66832, "name": "STARLINK-35768", "group": "last-30-days", "lat": 14.797868215714322, "lon": -161.2592107740863, "alt_km": 327.47923556504793, "timestamp": "2025-12-14T16:47:39.438489+00:00", "meta": {"OBJECT_NAME": "STARLINK-35768", "OBJECT_ID": "2025-280M", "EPOCH": "2025-12-13T14:55:27.560064", "MEAN_MOTION": 15.80021789, "ECCENTRICITY": 0.00151194, "INCLINATION": 69.9927, "RA_OF_ASC_NODE": 196.2997, "ARG_OF_PERICENTER": 247.1281, "MEAN_ANOMALY": 112.8324, "EPHEMERIS_TYPE": 0, "CLASSIFICATION_TYPE": "U", "NORAD_CAT_ID": 66832, "ELEMENT_SET_NO": 999, "REV_AT_EPOCH": 306, "BSTAR": 0.0077359951, "MEAN_MOTION_DOT": 0.01661345, "MEAN_MOTION_DDOT": 0}, "tle": {"line1": "1 66832U 25280M   25347.62184676  .01661345  00000+0  77360-2 0  9993", "line2": "2 66832  69.9927 196.2997 0015119 247.1281 112.8324 15.80021789  3065"}}, "geometry": {"type": "Point", "coordinates": [-161.2592107740863, 14.797868215714322]}}, {"type": "Feature", "properties": {"norad_id": 66833, "name": "STARLINK-35858", "group": "last-30-days", "lat": -1.5876049397174705, "lon": -167.340368987205, "alt_km": 340.90103431739135, "timestamp": "2025-12-14T16:47:39.438501+00:00", "meta": {"OBJECT_NAME": "STARLINK-35858", "OBJECT_ID": "2025-280N", "EPOCH": "2025-12-13T07:19:00.808608", "MEAN_MOTION": 15.78368693, "ECCENTRICITY": 0.00051238, "INCLINATION": 69.9935, "RA_OF_ASC_NODE": 197.2021, "ARG_OF_PERICENTER": 320.7844, "MEAN_ANOMALY": 39.2984, "EPHEMERIS_TYPE": 0, "CLASSIFICATION_TYPE": "U", "NORAD_CAT_ID": 66833, "ELEMENT_SET_NO": 999, "REV_AT_EPOCH": 301, "BSTAR": -0.0044392665, "MEAN_MOTION_DOT": -0.00708761, "MEAN_MOTION_DDOT": 0}, "tle": {"line1": "1 66833U 25280N   25347.30487047 -.00708761  00000+0 -44393-2 0  9992", "line2": "2 66833  69.9935 197.2021 0005123 320.7844  39.2984 15.78368693  3015"}}, "geometry": {"type": "Point", "coordinates": [-167.340368987205, -1.5876049397174705]}}, {"type": "Feature", "properties": {"norad_id": 66834, "name": "STARLINK-35840", "group": "last-30-days", "lat": 9.787938370553645, "lon": -163.17209074129363, "alt_km": 327.0745764546609, "timestamp": "2025-12-14T16:47:39.438511+00:00", "meta": {"OBJECT_NAME": "STARLINK-35840", "OBJECT_ID": "2025-280P", "EPOCH": "2025-12-13T20:59:36.421440", "MEAN_MOTION": 15.78881261, "ECCENTRICITY": 0.00087169, "INCLINATION": 70.0015, "RA_OF_ASC_NODE": 195.5774, "ARG_OF_PERICENTER": 315.983, "MEAN_ANOMALY": 44.0675, "EPHEMERIS_TYPE": 0, "CLASSIFICATION_TYPE": "U", "NORAD_CAT_ID": 66834, "ELEMENT_SET_NO": 999, "REV_AT_EPOCH": 310, "BSTAR": 0.0052965953, "MEAN_MOTION_DOT": 0.0103931, "MEAN_MOTION_DDOT": 0}, "tle": {"line1": "1 66834U 25280P   25347.87472710  .01039310  00000+0  52966-2 0  9997", "line2": "2 66834  70.0015 195.5774 0008716 315.9830  44.0675 15.78881261  3108"}}, "geometry": {"type": "Point", "coordinates": [-163.17209074129363, 9.787938370553645]}}]}